{"epoch":1784762836,"count":18316,"objects":[{"id":"28915","name":"COSMOS 2419 (GLONASS)","type":"PAYLOAD","l1":"1 28915U 05050A   26203.36989189 -.00000090  00000-0  00000-0 0  9991","l2":"2 28915  65.5473 314.9202 0013498 333.5569  21.1129  2.13108426160119"},{"id":"28916","name":"COSMOS 2418 (GLONASS)","type":"PAYLOAD","l1":"1 28916U 05050B   26203.36989189 -.00000091  00000-0  00000-0 0  9993","l2":"2 28916  65.5705 315.0981 0011017 278.1959  85.0382  2.13106541160011"},{"id":"28917","name":"COSMOS 2417 (GLONASS)","type":"PAYLOAD","l1":"1 28917U 05050C   26201.39060198 -.00000084  00000-0  00000-0 0  9997","l2":"2 28917  65.5515 315.0200 0015985  97.2670 260.9485  2.13104444159930"},{"id":"29670","name":"COSMOS 2425 (GLONASS)","type":"PAYLOAD","l1":"1 29670U 06062A   26201.82614153  .00000088  00000-0  00000-0 0  9995","l2":"2 29670  64.6958 193.1647 0023002 351.5204   9.8269  2.13117769152304"},{"id":"29671","name":"COSMOS 2426 (GLONASS)","type":"PAYLOAD","l1":"1 29671U 06062B   26201.12829341  .00000082  00000-0  00000-0 0  9990","l2":"2 29671  64.7028 193.4477 0021616 184.7781 280.8827  2.12963899152250"},{"id":"29672","name":"COSMOS 2424 (GLONASS)","type":"PAYLOAD","l1":"1 29672U 06062C   26202.14302213  .00000091  00000-0  00000-0 0  9998","l2":"2 29672  64.6992 193.1703 0019469 177.2740 182.7435  2.13122902152308"},{"id":"32275","name":"COSMOS 2433 (GLONASS)","type":"PAYLOAD","l1":"1 32275U 07052A   26203.10996669 -.00000090  00000-0  00000-0 0  9992","l2":"2 32275  65.5549 314.7579 0003748 204.3382 155.6620  2.13104093145801"},{"id":"32276","name":"COSMOS 2432 (GLONASS)","type":"PAYLOAD","l1":"1 32276U 07052B   26202.71222580 -.00000089  00000-0  00000-0 0  9991","l2":"2 32276  65.5711 314.9000 0007376 320.6767  37.9431  2.13103052145811"},{"id":"32277","name":"COSMOS 2431 (GLONASS)","type":"PAYLOAD","l1":"1 32277U 07052C   26202.01934977 -.00000087  00000-0  00000-0 0  9993","l2":"2 32277  65.5681 314.7179 0016224 173.8780 143.6298  2.13209236145938"},{"id":"32393","name":"COSMOS 2434 (GLONASS)","type":"PAYLOAD","l1":"1 32393U 07065A   26201.60474382  .00000086  00000-0  00000-0 0  9997","l2":"2 32393  64.3202 190.7886 0001234 328.2500 206.6629  2.13101204144484"},{"id":"32394","name":"COSMOS 2435 (GLONASS)","type":"PAYLOAD","l1":"1 32394U 07065B   26199.76914838  .00000067  00000-0  00000-0 0  9995","l2":"2 32394  64.3243 190.8454 0025107 356.9601   3.0216  2.13115349144416"},{"id":"32395","name":"COSMOS 2436 (GLONASS)","type":"PAYLOAD","l1":"1 32395U 07065C   26201.38576125  .00000084  00000-0  00000-0 0  9990","l2":"2 32395  64.3289 190.8685 0017323 353.6543 145.4326  2.13100001144437"},{"id":"33378","name":"COSMOS 2442 (GLONASS)","type":"PAYLOAD","l1":"1 33378U 08046A   26202.47725816 -.00000088  00000-0  00000-0 0  9991","l2":"2 33378  65.4414 313.7017 0017105 308.1024  59.9295  2.13109194138689"}]}