[
    {
        "OBJECT_NAME": "COSMOS 2419 [GLONASS-M]",
        "OBJECT_ID": "2005-050A",
        "EPOCH": "2026-07-22T08:52:38.659296",
        "MEAN_MOTION": 2.13108426,
        "ECCENTRICITY": 0.0013498,
        "INCLINATION": 65.5473,
        "RA_OF_ASC_NODE": 314.9202,
        "ARG_OF_PERICENTER": 333.5569,
        "MEAN_ANOMALY": 21.1129,
        "EPHEMERIS_TYPE": 0,
        "CLASSIFICATION_TYPE": "U",
        "NORAD_CAT_ID": 28915,
        "ELEMENT_SET_NO": 999,
        "REV_AT_EPOCH": 16011,
        "BSTAR": 0,
        "MEAN_MOTION_DOT": -9e-07,
        "MEAN_MOTION_DDOT": 0
    },
    {
        "OBJECT_NAME": "COSMOS 2418 [GLONASS-M]",
        "OBJECT_ID": "2005-050B",
        "EPOCH": "2026-07-22T08:52:38.659296",
        "MEAN_MOTION": 2.13106541,
        "ECCENTRICITY": 0.00110173,
        "INCLINATION": 65.5705,
        "RA_OF_ASC_NODE": 315.0981,
        "ARG_OF_PERICENTER": 278.1959,
        "MEAN_ANOMALY": 85.0382,
        "EPHEMERIS_TYPE": 0,
        "CLASSIFICATION_TYPE": "U",
        "NORAD_CAT_ID": 28916,
        "ELEMENT_SET_NO": 999,
        "REV_AT_EPOCH": 16001,
        "BSTAR": 0,
        "MEAN_MOTION_DOT": -9.1e-07,
        "MEAN_MOTION_DDOT": 0
    },
    {
        "OBJECT_NAME": "COSMOS 2417 [GLONASS]",
        "OBJECT_ID": "2005-050C",
        "EPOCH": "2026-07-20T09:22:28.011072",
        "MEAN_MOTION": 2.13104444,
        "ECCENTRICITY": 0.00159848,
        "INCLINATION": 65.5515,
        "RA_OF_ASC_NODE": 315.02,
        "ARG_OF_PERICENTER": 97.267,
        "MEAN_ANOMALY": 260.9485,
        "EPHEMERIS_TYPE": 0,
        "CLASSIFICATION_TYPE": "U",
        "NORAD_CAT_ID": 28917,
        "ELEMENT_SET_NO": 999,
        "REV_AT_EPOCH": 15993,
        "BSTAR": 0,
        "MEAN_MOTION_DOT": -8.4e-07,
        "MEAN_MOTION_DDOT": 0
    },
    {
        "OBJECT_NAME": "COSMOS 2425 [GLONASS-M]",
        "OBJECT_ID": "2006-062A",
        "EPOCH": "2026-07-20T19:49:38.628192",
        "MEAN_MOTION": 2.13117769,
        "ECCENTRICITY": 0.00230019,
        "INCLINATION": 64.6958,
        "RA_OF_ASC_NODE": 193.1647,
        "ARG_OF_PERICENTER": 351.5204,
        "MEAN_ANOMALY": 9.8269,
        "EPHEMERIS_TYPE": 0,
        "CLASSIFICATION_TYPE": "U",
        "NORAD_CAT_ID": 29670,
        "ELEMENT_SET_NO": 999,
        "REV_AT_EPOCH": 15230,
        "BSTAR": 0,
        "MEAN_MOTION_DOT": 8.8e-07,
        "MEAN_MOTION_DDOT": 0
    },
    {
        "OBJECT_NAME": "COSMOS 2426 [GLONASS-M]",
        "OBJECT_ID": "2006-062B",
        "EPOCH": "2026-07-20T03:04:44.550624",
        "MEAN_MOTION": 2.12963899,
        "ECCENTRICITY": 0.00216165,
        "INCLINATION": 64.7028,
        "RA_OF_ASC_NODE": 193.4477,
        "ARG_OF_PERICENTER": 184.7781,
        "MEAN_ANOMALY": 280.8827,
        "EPHEMERIS_TYPE": 0,
        "CLASSIFICATION_TYPE": "U",
        "NORAD_CAT_ID": 29671,
        "ELEMENT_SET_NO": 999,
        "REV_AT_EPOCH": 15225,
        "BSTAR": 0,
        "MEAN_MOTION_DOT": 8.2e-07,
        "MEAN_MOTION_DDOT": 0
    },
    {
        "OBJECT_NAME": "COSMOS 2424 [GLONASS-M]",
        "OBJECT_ID": "2006-062C",
        "EPOCH": "2026-07-21T03:25:57.112032",
        "MEAN_MOTION": 2.13122902,
        "ECCENTRICITY": 0.00194691,
        "INCLINATION": 64.6992,
        "RA_OF_ASC_NODE": 193.1703,
        "ARG_OF_PERICENTER": 177.274,
        "MEAN_ANOMALY": 182.7435,
        "EPHEMERIS_TYPE": 0,
        "CLASSIFICATION_TYPE": "U",
        "NORAD_CAT_ID": 29672,
        "ELEMENT_SET_NO": 999,
        "REV_AT_EPOCH": 15230,
        "BSTAR": 0,
        "MEAN_MOTION_DOT": 9.1e-07,
        "MEAN_MOTION_DDOT": 0
    },
    {
        "OBJECT_NAME": "COSMOS 2433 [GLONASS-M]",
        "OBJECT_ID": "2007-052A",
        "EPOCH": "2026-07-22T02:38:21.122016",
        "MEAN_MOTION": 2.13104093,
        "ECCENTRICITY": 0.00037484,
        "INCLINATION": 65.5549,
        "RA_OF_ASC_NODE": 314.7579,
        "ARG_OF_PERICENTER": 204.3382,
        "MEAN_ANOMALY": 155.662,
        "EPHEMERIS_TYPE": 0,
        "CLASSIFICATION_TYPE": "U",
        "NORAD_CAT_ID": 32275,
        "ELEMENT_SET_NO": 999,
        "REV_AT_EPOCH": 14580,
        "BSTAR": 0,
        "MEAN_MOTION_DOT": -9e-07,
        "MEAN_MOTION_DDOT": 0
    },
    {
        "OBJECT_NAME": "COSMOS 2432 [GLONASS-M]",
        "OBJECT_ID": "2007-052B",
        "EPOCH": "2026-07-21T17:05:36.309120",
        "MEAN_MOTION": 2.13103052,
        "ECCENTRICITY": 0.00073755,
        "INCLINATION": 65.5711,
        "RA_OF_ASC_NODE": 314.9,
        "ARG_OF_PERICENTER": 320.6767,
        "MEAN_ANOMALY": 37.9431,
        "EPHEMERIS_TYPE": 0,
        "CLASSIFICATION_TYPE": "U",
        "NORAD_CAT_ID": 32276,
        "ELEMENT_SET_NO": 999,
        "REV_AT_EPOCH": 14581,
        "BSTAR": 0,
        "MEAN_MOTION_DOT": -8.9e-07,
        "MEAN_MOTION_DDOT": 0
    },
    {
        "OBJECT_NAME": "COSMOS 2431 [GLONASS-M]",
        "OBJECT_ID": "2007-052C",
        "EPOCH": "2026-07-21T00:27:51.820128",
        "MEAN_MOTION": 2.13209236,
        "ECCENTRICITY": 0.00162241,
        "INCLINATION": 65.5681,
        "RA_OF_ASC_NODE": 314.7179,
        "ARG_OF_PERICENTER": 173.878,
        "MEAN_ANOMALY": 143.6298,
        "EPHEMERIS_TYPE": 0,
        "CLASSIFICATION_TYPE": "U",
        "NORAD_CAT_ID": 32277,
        "ELEMENT_SET_NO": 999,
        "REV_AT_EPOCH": 14593,
        "BSTAR": 0,
        "MEAN_MOTION_DOT": -8.7e-07,
        "MEAN_MOTION_DDOT": 0
    },
    {
        "OBJECT_NAME": "COSMOS 2434 [GLONASS-M]",
        "OBJECT_ID": "2007-065A",
        "EPOCH": "2026-07-20T14:30:49.866048",
        "MEAN_MOTION": 2.13101204,
        "ECCENTRICITY": 0.00012344,
        "INCLINATION": 64.3202,
        "RA_OF_ASC_NODE": 190.7886,
        "ARG_OF_PERICENTER": 328.25,
        "MEAN_ANOMALY": 206.6629,
        "EPHEMERIS_TYPE": 0,
        "CLASSIFICATION_TYPE": "U",
        "NORAD_CAT_ID": 32393,
        "ELEMENT_SET_NO": 999,
        "REV_AT_EPOCH": 14448,
        "BSTAR": 0,
        "MEAN_MOTION_DOT": 8.6e-07,
        "MEAN_MOTION_DDOT": 0
    },
    {
        "OBJECT_NAME": "COSMOS 2435 [GLONASS-M]",
        "OBJECT_ID": "2007-065B",
        "EPOCH": "2026-07-18T18:27:34.420032",
        "MEAN_MOTION": 2.13115349,
        "ECCENTRICITY": 0.0025107,
        "INCLINATION": 64.3243,
        "RA_OF_ASC_NODE": 190.8454,
        "ARG_OF_PERICENTER": 356.9601,
        "MEAN_ANOMALY": 3.0216,
        "EPHEMERIS_TYPE": 0,
        "CLASSIFICATION_TYPE": "U",
        "NORAD_CAT_ID": 32394,
        "ELEMENT_SET_NO": 999,
        "REV_AT_EPOCH": 14441,
        "BSTAR": 0,
        "MEAN_MOTION_DOT": 6.7e-07,
        "MEAN_MOTION_DDOT": 0
    },
    {
        "OBJECT_NAME": "COSMOS 2436 [GLONASS-M]",
        "OBJECT_ID": "2007-065C",
        "EPOCH": "2026-07-20T09:15:29.772000",
        "MEAN_MOTION": 2.13100001,
        "ECCENTRICITY": 0.00173232,
        "INCLINATION": 64.3289,
        "RA_OF_ASC_NODE": 190.8685,
        "ARG_OF_PERICENTER": 353.6543,
        "MEAN_ANOMALY": 145.4326,
        "EPHEMERIS_TYPE": 0,
        "CLASSIFICATION_TYPE": "U",
        "NORAD_CAT_ID": 32395,
        "ELEMENT_SET_NO": 999,
        "REV_AT_EPOCH": 14443,
        "BSTAR": 0,
        "MEAN_MOTION_DOT": 8.4e-07,
        "MEAN_MOTION_DDOT": 0
    },
    {
        "OBJECT_NAME": "COSMOS 2442 [GLONASS-M]",
        "OBJECT_ID": "2008-046A",
        "EPOCH": "2026-07-21T11:27:15.105024",
        "MEAN_MOTION": 2.13109194,
        "ECCENTRICITY": 0.00171051,
        "INCLINATION": 65.4414,
        "RA_OF_ASC_NODE": 313.7017,
        "ARG_OF_PERICENTER": 308.1024,
        "MEAN_ANOMALY": 59.9295,
        "EPHEMERIS_TYPE": 0,
        "CLASSIFICATION_TYPE": "U",
        "NORAD_CAT_ID": 33378,
        "ELEMENT_SET_NO": 999,
        "REV_AT_EPOCH": 13868,
        "BSTAR": 0,
        "MEAN_MOTION_DOT": -8.8e-07,
        "MEAN_MOTION_DDOT": 0
    }
]
